[{"OBJECT_NAME":"GOOD ANCESTOR KILAKILA","OBJECT_ID":"2025-135A","EPOCH":"2026-03-09T20:23:34.960416","MEAN_MOTION":15.223265,"ECCENTRICITY":0.00056529,"INCLINATION":97.4506,"RA_OF_ASC_NODE":184.7346,"ARG_OF_PERICENTER":162.0939,"MEAN_ANOMALY":198.0498,"EPHEMERIS_TYPE":0,"CLASSIFICATION_TYPE":"U","NORAD_CAT_ID":64528,"ELEMENT_SET_NO":999,"REV_AT_EPOCH":3976,"BSTAR":0.00051974795,"MEAN_MOTION_DOT":0.00011925,"MEAN_MOTION_DDOT":0},{"OBJECT_NAME":"GEESAT-4 10","OBJECT_ID":"2025-170K","EPOCH":"2026-03-09T23:21:58.377312","MEAN_MOTION":15.17890105,"ECCENTRICITY":0.0016786,"INCLINATION":49.9867,"RA_OF_ASC_NODE":229.1245,"ARG_OF_PERICENTER":279.3492,"MEAN_ANOMALY":80.5562,"EPHEMERIS_TYPE":0,"CLASSIFICATION_TYPE":"U","NORAD_CAT_ID":65128,"ELEMENT_SET_NO":999,"REV_AT_EPOCH":3230,"BSTAR":0.00064105503,"MEAN_MOTION_DOT":0.0001293,"MEAN_MOTION_DDOT":0}]
